NORAD_CAT_ID,OBJECT_NAME,OBJECT_TYPE,EPOCH,MEAN_MOTION,ECCENTRICITY,INCLINATION,RA_OF_ASC_NODE,ARG_OF_PERICENTER,MEAN_ANOMALY,BSTAR,MEAN_MOTION_DOT,MEAN_MOTION_DDOT,TLE_LINE0,TLE_LINE1,TLE_LINE2,SEMIMAJOR_AXIS,PERIOD,APOGEE,PERIGEE,DECAYED
52690.0,STARLINK-4035,PAYLOAD,2022-09-13 22:00:00,15.08817341,0.000168,53.2172,97.8106,59.2019,230.4943,0.001529,0.00024115,0.0,0 STARLINK-4035,1 52690U 22053AL  22256.91667824  .00024115  00000-0  15290-2 0  9996,2 52690  53.2172  97.8106 0001680  59.2019 230.4943 15.08817341  1303,6917.95,95.439,540.977,538.6519999999998,0.0
52690.0,STARLINK-4035,PAYLOAD,2022-09-14 14:00:01,15.08799615,0.0001737,53.2172,94.8189,63.949,248.9214,0.0032229,0.00051321,0.0,0 STARLINK-4035,1 52690U 22053AL  22257.58334491  .00051321  00000-0  32229-2 0  9991,2 52690  53.2172  94.8189 0001737  63.9490 248.9214 15.08799615  1307,6918.004,95.44,541.07,538.6669999999998,0.0
52690.0,STARLINK-4035,PAYLOAD,2022-09-14 22:00:00,15.08807771,0.0001786999999999,53.2171,93.3216,62.0379,262.4108,0.0017829999999999,0.00028177,0.0,0 STARLINK-4035,1 52690U 22053AL  22257.91667824  .00028177  00000-0  17830-2 0  9991,2 52690  53.2171  93.3216 0001787  62.0379 262.4108 15.08807771 18755,6917.979,95.44,541.08,538.6080000000002,0.0
52690.0,STARLINK-4035,PAYLOAD,2022-09-15 14:00:01,15.08845933,0.0001683,53.2171,90.3273,69.8395,277.7621,0.00044025,6.727e-05,0.0,0 STARLINK-4035,1 52690U 22053AL  22258.58334491  .00006727  00000-0  44025-3 0  9990,2 52690  53.2171  90.3273 0001683  69.8395 277.7621 15.08845933  1307,6917.861999999999,95.437,540.8919999999998,538.563,0.0
52690.0,STARLINK-4035,PAYLOAD,2022-09-15 18:49:29,15.08830932,0.0001749,53.2184,89.4255,65.1331,294.9842,6.6289e-05,7.67e-06,0.0,0 STARLINK-4035,1 52690U 22053AL  22258.78437219  .00000767  00000-0  66289-4 0  9999,2 52690  53.2184  89.4255 0001749  65.1331 294.9842 15.08830932 18882,6917.908,95.438,540.9830000000002,538.563,0.0
52690.0,STARLINK-4035,PAYLOAD,2022-09-16 12:18:43,15.08838679,0.0001679,53.2184,86.1543,67.9271,292.1899,0.00010817,1.434e-05,0.0,0 STARLINK-4035,1 52690U 22053AL  22259.51300924  .00001434  00000-0  10817-3 0  9990,2 52690  53.2184  86.1543 0001679  67.9271 292.1899 15.08838679 18991,6917.884,95.438,540.911,538.5880000000002,0.0
52690.0,STARLINK-4035,PAYLOAD,2022-09-16 20:15:39,15.088428099999998,0.0001701,53.2183,84.6677,67.7709,292.3463,0.00015124,2.12e-05,0.0,0 STARLINK-4035,1 52690U 22053AL  22259.84420577  .00002120  00000-0  15124-3 0  9992,2 52690  53.2183  84.6677 0001701  67.7709 292.3463 15.08842810 19410,6917.871999999999,95.437,540.914,538.56,0.0
52690.0,STARLINK-4035,PAYLOAD,2022-09-17 12:09:30,15.08842908,0.0001913,53.2184,81.694,72.7336,287.3865,0.00018079,2.591e-05,0.0,0 STARLINK-4035,1 52690U 22053AL  22260.50660631  .00002591  00000-0  18079-3 0  9998,2 52690  53.2184  81.6940 0001913  72.7336 287.3865 15.08842908 19517,6917.871999999999,95.437,541.06,538.413,0.0
52690.0,STARLINK-4035,PAYLOAD,2022-09-17 18:31:03,15.08836316,0.0001705,53.2184,80.5049,69.5007,290.6168,0.00011962,1.616e-05,0.0,0 STARLINK-4035,1 52690U 22053AL  22260.77157198  .00001616  00000-0  11962-3 0  9997,2 52690  53.2184  80.5049 0001705  69.5007 290.6168 15.08836316 19556,6917.892,95.438,540.936,538.577,0.0
52690.0,STARLINK-4035,PAYLOAD,2022-09-18 12:00:17,15.08844399,0.0001745,53.219,77.2342,69.3654,290.7525,7.4324e-05,8.95e-06,0.0,0 STARLINK-4035,1 52690U 22053AL  22261.50020744  .00000895  00000-0  74324-4 0  9995,2 52690  53.2190  77.2342 0001745  69.3654 290.7525 15.08844399 19662,6917.8669999999975,95.437,540.939,538.525,0.0
52690.0,STARLINK-4035,PAYLOAD,2022-09-18 18:21:50,15.08839156,0.0001710999999999,53.2195,76.0448,67.0471,293.0702,-2.5082e-05,-6.87e-06,0.0,0 STARLINK-4035,1 52690U 22053AL  22261.76517242 -.00000687  00000-0 -25082-4 0  9995,2 52690  53.2195  76.0448 0001711  67.0471 293.0702 15.08839156 19709,6917.8830000000025,95.438,540.932,538.564,0.0
52690.0,STARLINK-4035,PAYLOAD,2022-09-18 21:32:36,15.08841531,0.0001657,53.2198,75.4494,68.8476,291.2693,-1.6737999999999998e-05,-5.54e-06,0.0,0 STARLINK-4035,1 52690U 22053AL  22261.89765028 -.00000554  00000-0 -16738-4 0  9997,2 52690  53.2198  75.4494 0001657  68.8476 291.2693 15.08841531 19359,6917.876,95.437,540.887,538.594,0.0
52690.0,STARLINK-4035,PAYLOAD,2022-09-19 11:51:04,15.08837721,0.0001689,53.2199,72.7735,71.0143,289.1032,0.00015235,2.137e-05,0.0,0 STARLINK-4035,1 52690U 22053AL  22262.49380679  .00002137  00000-0  15235-3 0  9996,2 52690  53.2199  72.7735 0001689  71.0143 289.1032 15.08837721 19810,6917.887,95.438,540.9209999999998,538.5840000000002,0.0
52690.0,STARLINK-4035,PAYLOAD,2022-09-20 10:06:29,15.08837974,0.0001456,53.2207,68.6099,78.0085,282.107,3.1109e-05,2.07e-06,0.0,0 STARLINK-4035,1 52690U 22053AL  22263.42116902  .00000207  00000-0  31109-4 0  9991,2 52690  53.2207  68.6099 0001456  78.0085 282.1070 15.08837974 19951,6917.887,95.438,540.759,538.744,0.0
52690.0,STARLINK-4035,PAYLOAD,2022-09-21 11:32:38,15.08846259,0.0001579,53.2198,63.8521,73.5284,286.5881,7.1775e-05,8.55e-06,0.0,0 STARLINK-4035,1 52690U 22053AL  22264.48100247  .00000855  00000-0  71775-4 0  9995,2 52690  53.2198  63.8521 0001579  73.5284 286.5881 15.08846259 19745,6917.861,95.437,540.819,538.634,0.0
52690.0,STARLINK-4035,PAYLOAD,2022-09-22 17:44:58,15.08839944,0.0001528,53.22,58.2026,60.8566,299.2579,1.9258e-05,1.9e-07,0.0,0 STARLINK-4035,1 52690U 22053AL  22265.73956983  .00000019  00000-0  19258-4 0  9990,2 52690  53.2200  58.2026 0001528  60.8566 299.2579 15.08839944 19932,6917.880999999999,95.438,540.803,538.689,0.0
52690.0,STARLINK-4035,PAYLOAD,2022-09-23 09:38:50,15.08837648,0.0001556,53.22,55.2295,60.69300000000001,299.4218,5.8488e-05,6.43e-06,0.0,0 STARLINK-4035,1 52690U 22053AL  22266.40197068  .00000643  00000-0  58488-4 0  9997,2 52690  53.2200  55.2295 0001556  60.6930 299.4218 15.08837648 20406,6917.888000000001,95.438,540.8290000000002,538.6759999999998,0.0
52690.0,STARLINK-4035,PAYLOAD,2022-09-23 17:35:45,15.08845329,0.0001516,53.2198,53.7428,60.0328,300.0815,0.00011387,1.525e-05,0.0,0 STARLINK-4035,1 52690U 22053AL  22266.73316422  .00001525  00000-0  11387-3 0  9996,2 52690  53.2198  53.7428 0001516  60.0328 300.0815 15.08845329 20085,6917.864000000001,95.437,540.778,538.68,0.0
52690.0,STARLINK-4035,PAYLOAD,2022-09-24 03:08:03,15.08849341,0.0001547,53.2201,51.9593,61.0899,299.0248,0.00020639,2.999e-05,0.0,0 STARLINK-4035,1 52690U 22053AL  22267.13059784  .00002999  00000-0  20639-3 0  9992,2 52690  53.2201  51.9593 0001547  61.0899 299.0248 15.08849341 20514,6917.852,95.437,540.7869999999998,538.6469999999998,0.0
52690.0,STARLINK-4035,PAYLOAD,2022-09-24 15:51:09,15.08842398,0.0001523,53.2212,49.5764,71.6582,288.4576,0.00014882,2.081e-05,0.0,0 STARLINK-4035,1 52690U 22053AL  22267.66052211  .00002081  00000-0  14882-3 0  9993,2 52690  53.2212  49.5764 0001523  71.6582 288.4576 15.08842398 20598,6917.873000000001,95.437,540.7919999999998,538.684,0.0
52690.0,STARLINK-4035,PAYLOAD,2022-09-25 02:58:50,15.08849137,0.0001516,53.2205,47.4977,66.8038,293.3114,0.00016389,2.322e-05,0.0,0 STARLINK-4035,1 52690U 22053AL  22268.12419692  .00002322  00000-0  16389-3 0  9997,2 52690  53.2205  47.4977 0001516  66.8038 293.3114 15.08849137 20295,6917.852,95.437,540.766,538.669,0.0
52690.0,STARLINK-4035,PAYLOAD,2022-09-25 12:31:09,15.08847983,0.0001530999999999,53.222,45.7115,92.9849,267.1318,4.9248e-05,4.96e-06,0.0,0 STARLINK-4035,1 52690U 22053AL  22268.52163833  .00000496  00000-0  49248-4 0  9995,2 52690  53.2220  45.7115 0001531  92.9849 267.1318 15.08847983 20724,6917.856,95.437,540.78,538.6619999999998,0.0
52690.0,STARLINK-4035,PAYLOAD,2022-09-25 17:17:19,15.0884042,0.0001629,53.222,44.8213,91.8588,268.2591,-2.0527e-05,-6.15e-06,0.0,0 STARLINK-4035,1 52690U 22053AL  22268.72036442 -.00000615  00000-0 -20527-4 0  9996,2 52690  53.2220  44.8213 0001629  91.8588 268.2591 15.08840420 20756,6917.879,95.438,540.871,538.617,0.0
52690.0,STARLINK-4035,PAYLOAD,2022-09-27 12:12:45,15.08830417,0.0001854,53.2209,36.7966,46.9743,313.1405,3.1365e-05,2.11e-06,0.0,0 STARLINK-4035,1 52690U 22053AL  22270.50885502  .00000211  00000-0  31365-4 0  9996,2 52690  53.2209  36.7966 0001854  46.9743 313.1405 15.08830417 20650,6917.91,95.438,541.057,538.492,0.0
52690.0,STARLINK-4035,PAYLOAD,2022-09-28 12:03:31,15.08839404,0.0001223,53.2203,32.3329,79.1249,280.9881,3.3258e-05,2.41e-06,0.0,0 STARLINK-4035,1 52690U 22053AL  22271.50245052  .00000241  00000-0  33258-4 0  9993,2 52690  53.2203  32.3329 0001223  79.1249 280.9881 15.08839404 21170,6917.882,95.438,540.5930000000002,538.901,0.0
52690.0,STARLINK-4035,PAYLOAD,2022-09-29 11:54:20,15.08833825,0.0001411,53.2209,27.8745,70.5081,289.6064,-0.00011938,-2.187e-05,0.0,0 STARLINK-4035,1 52690U 22053AL  22272.49607101 -.00002187  00000-0 -11938-3 0  9992,2 52690  53.2209  27.8745 0001411  70.5081 289.6064 15.08833825 20950,6917.899,95.438,540.74,538.788,0.0
52690.0,STARLINK-4035,PAYLOAD,2022-09-30 00:37:25,15.08838912,0.0001744,53.2213,25.4964,54.6408,305.4747,0.00010859,1.441e-05,0.0,0 STARLINK-4035,1 52690U 22053AL  22273.02598479  .00001441  00000-0  10859-3 0  9990,2 52690  53.2213  25.4964 0001744  54.6408 305.4747 15.08838912 21034,6917.884,95.438,540.955,538.5419999999998,0.0
52690.0,STARLINK-4035,PAYLOAD,2022-09-30 08:34:19,15.08856909,0.0001829,53.2189,24.0077,29.2524,330.857,8.213e-05,1.02e-05,0.0,0 STARLINK-4035,1 52690U 22053AL  22273.35717550  .00001020  00000-0  82130-4 0  9994,2 52690  53.2189  24.0077 0001829  29.2524 330.8570 15.08856909 21084,6917.829000000002,95.436,540.9590000000002,538.428,0.0
52690.0,STARLINK-4035,PAYLOAD,2022-09-30 16:31:14,15.08859068,0.0001468,53.2213,22.5219,56.3858,303.7274,0.00038415,5.834e-05,0.0,0 STARLINK-4035,1 52690U 22053AL  22273.68836632  .00005834  00000-0  38415-3 0  9996,2 52690  53.2213  22.5219 0001468  56.3858 303.7274 15.08859068 21138,6917.821999999999,95.436,540.703,538.672,0.0
